{
  "links" : {
    "next" : "https://api.nasa.gov/neo/rest/v1/feed?start_date=2014-10-23&end_date=2014-10-23&detailed=true&api_key=t0TVs3DtDT2H8Oy2Zy8m2eVrNsAVKAexjcZXUckd",
    "prev" : "https://api.nasa.gov/neo/rest/v1/feed?start_date=2014-10-21&end_date=2014-10-21&detailed=true&api_key=t0TVs3DtDT2H8Oy2Zy8m2eVrNsAVKAexjcZXUckd",
    "self" : "https://api.nasa.gov/neo/rest/v1/feed?start_date=2014-10-22&end_date=2014-10-22&detailed=true&api_key=t0TVs3DtDT2H8Oy2Zy8m2eVrNsAVKAexjcZXUckd"
  },
  "element_count" : 12,
  "near_earth_objects" : {
    "2014-10-22" : [ {
      "links" : {
        "self" : "https://api.nasa.gov/neo/rest/v1/neo/3693239?api_key=t0TVs3DtDT2H8Oy2Zy8m2eVrNsAVKAexjcZXUckd"
      },
      "neo_reference_id" : "3693239",
      "name" : "(2014 TT35)",
      "nasa_jpl_url" : "http://ssd.jpl.nasa.gov/sbdb.cgi?sstr=3693239",
      "absolute_magnitude_h" : 26.0,
      "estimated_diameter" : {
        "kilometers" : {
          "estimated_diameter_min" : 0.0167708462,
          "estimated_diameter_max" : 0.0375007522
        },
        "meters" : {
          "estimated_diameter_min" : 16.7708462163,
          "estimated_diameter_max" : 37.5007521798
        },
        "miles" : {
          "estimated_diameter_min" : 0.0104209175,
          "estimated_diameter_max" : 0.0233018799
        },
        "feet" : {
          "estimated_diameter_min" : 55.0224631002,
          "estimated_diameter_max" : 123.0339677816
        }
      },
      "is_potentially_hazardous_asteroid" : false,
      "close_approach_data" : [ {
        "close_approach_date" : "2014-10-22",
        "epoch_date_close_approach" : 1413961200000,
        "relative_velocity" : {
          "kilometers_per_second" : "10.6751597227",
          "kilometers_per_hour" : "38430.57500186",
          "miles_per_hour" : "23879.2647837946"
        },
        "miss_distance" : {
          "astronomical" : "0.0177117105",
          "lunar" : "6.8898553848",
          "kilometers" : "2649634.25",
          "miles" : "1646406.375"
        },
        "orbiting_body" : "Earth"
      } ],
      "orbital_data" : {
        "orbit_id" : "7",
        "orbit_determination_date" : "2017-04-06 08:38:10",
        "orbit_uncertainty" : "8",
        "minimum_orbit_intersection" : ".00612645",
        "jupiter_tisserand_invariant" : "4.283",
        "epoch_osculation" : "2456945.5",
        "eccentricity" : ".4692810944415246",
        "semi_major_axis" : "1.570167697400823",
        "inclination" : "3.233766020426062",
        "ascending_node_longitude" : "200.339167733277",
        "orbital_period" : "718.6500905312944",
        "perihelion_distance" : ".8333176819078359",
        "perihelion_argument" : "247.0892242091729",
        "aphelion_distance" : "2.307017712893809",
        "perihelion_time" : "2456995.684669401651",
        "mean_anomaly" : "334.8605319575791",
        "mean_motion" : ".50093919800922",
        "equinox" : "J2000"
      }
    }, {
      "links" : {
        "self" : "https://api.nasa.gov/neo/rest/v1/neo/3694125?api_key=t0TVs3DtDT2H8Oy2Zy8m2eVrNsAVKAexjcZXUckd"
      },
      "neo_reference_id" : "3694125",
      "name" : "(2014 UR34)",
      "nasa_jpl_url" : "http://ssd.jpl.nasa.gov/sbdb.cgi?sstr=3694125",
      "absolute_magnitude_h" : 24.9,
      "estimated_diameter" : {
        "kilometers" : {
          "estimated_diameter_min" : 0.0278326768,
          "estimated_diameter_max" : 0.0622357573
        },
        "meters" : {
          "estimated_diameter_min" : 27.8326768072,
          "estimated_diameter_max" : 62.2357573367
        },
        "miles" : {
          "estimated_diameter_min" : 0.0172944182,
          "estimated_diameter_max" : 0.0386714948
        },
        "feet" : {
          "estimated_diameter_min" : 91.3145593761,
          "estimated_diameter_max" : 204.1855621004
        }
      },
      "is_potentially_hazardous_asteroid" : false,
      "close_approach_data" : [ {
        "close_approach_date" : "2014-10-22",
        "epoch_date_close_approach" : 1413961200000,
        "relative_velocity" : {
          "kilometers_per_second" : "12.2194687449",
          "kilometers_per_hour" : "43990.0874817811",
          "miles_per_hour" : "27333.7296355545"
        },
        "miss_distance" : {
          "astronomical" : "0.021040112",
          "lunar" : "8.1846036911",
          "kilometers" : "3147556",
          "miles" : "1955800.625"
        },
        "orbiting_body" : "Earth"
      } ],
      "orbital_data" : {
        "orbit_id" : "4",
        "orbit_determination_date" : "2017-04-06 08:38:00",
        "orbit_uncertainty" : "8",
        "minimum_orbit_intersection" : ".0200928",
        "jupiter_tisserand_invariant" : "3.154",
        "epoch_osculation" : "2456955.5",
        "eccentricity" : ".5929766589484414",
        "semi_major_axis" : "2.493993521539192",
        "inclination" : "16.77856903202532",
        "ascending_node_longitude" : "207.5397786985755",
        "orbital_period" : "1438.604479895368",
        "perihelion_distance" : "1.015113575697824",
        "perihelion_argument" : "183.1968740940846",
        "aphelion_distance" : "3.972873467380559",
        "perihelion_time" : "2456954.744670314380",
        "mean_anomaly" : ".1890155985354481",
        "mean_motion" : ".2502425128178271",
        "equinox" : "J2000"
      }
    }, {
      "links" : {
        "self" : "https://api.nasa.gov/neo/rest/v1/neo/3695736?api_key=t0TVs3DtDT2H8Oy2Zy8m2eVrNsAVKAexjcZXUckd"
      },
      "neo_reference_id" : "3695736",
      "name" : "(2014 UM192)",
      "nasa_jpl_url" : "http://ssd.jpl.nasa.gov/sbdb.cgi?sstr=3695736",
      "absolute_magnitude_h" : 25.8,
      "estimated_diameter" : {
        "kilometers" : {
          "estimated_diameter_min" : 0.0183888672,
          "estimated_diameter_max" : 0.0411187571
        },
        "meters" : {
          "estimated_diameter_min" : 18.388867207,
          "estimated_diameter_max" : 41.1187571041
        },
        "miles" : {
          "estimated_diameter_min" : 0.0114263088,
          "estimated_diameter_max" : 0.0255500032
        },
        "feet" : {
          "estimated_diameter_min" : 60.3309310875,
          "estimated_diameter_max" : 134.9040630575
        }
      },
      "is_potentially_hazardous_asteroid" : false,
      "close_approach_data" : [ {
        "close_approach_date" : "2014-10-22",
        "epoch_date_close_approach" : 1413961200000,
        "relative_velocity" : {
          "kilometers_per_second" : "13.1717402322",
          "kilometers_per_hour" : "47418.2648357962",
          "miles_per_hour" : "29463.8657253312"
        },
        "miss_distance" : {
          "astronomical" : "0.0269888731",
          "lunar" : "10.4986715317",
          "kilometers" : "4037478",
          "miles" : "2508772.5"
        },
        "orbiting_body" : "Earth"
      } ],
      "orbital_data" : {
        "orbit_id" : "5",
        "orbit_determination_date" : "2017-04-06 08:37:38",
        "orbit_uncertainty" : "8",
        "minimum_orbit_intersection" : ".0229831",
        "jupiter_tisserand_invariant" : "3.660",
        "epoch_osculation" : "2456961.5",
        "eccentricity" : ".5392470598245381",
        "semi_major_axis" : "1.967842734995931",
        "inclination" : "11.13251262679295",
        "ascending_node_longitude" : "33.32878161524106",
        "orbital_period" : "1008.286630210123",
        "perihelion_distance" : ".9066893259522976",
        "perihelion_argument" : "309.7418296666544",
        "aphelion_distance" : "3.028996144039565",
        "perihelion_time" : "2456918.925385741828",
        "mean_anomaly" : "15.20089692129298",
        "mean_motion" : ".3570413305242157",
        "equinox" : "J2000"
      }
    } ]
  }
}